STARLINK-36742          
1 67907U 26036D   26068.89901138  .00267893  00000+0  12310-2 0  9990
2 67907  42.9993 248.4956 0002122 279.1110  80.9522 15.82098755  3709
STARLINK-36827          
1 67908U 26036E   26068.96139653  .00333800  00000+0  15202-2 0  9999
2 67908  42.9986 248.1012 0002108 299.4497  60.6164 15.82117013  3716
STARLINK-36822          
1 67909U 26036F   26068.96064622  .00410368  00000+0  18493-2 0  9993
2 67909  42.9986 248.0951 0001770 299.6042  60.4653 15.82145601  3715
STARLINK-36847          
1 67910U 26036G   26068.95989624  .00393218  00000+0  17758-2 0  9999
2 67910  42.9987 248.0891 0001959 297.1888  62.8784 15.82144193  3717
STARLINK-36736          
1 67911U 26036H   26068.95914595  .00388444  00000+0  17550-2 0  9990
2 67911  42.9990 248.0827 0002014 267.9025  92.1617 15.82146838  3711
STARLINK-36676          
1 67912U 26036J   26068.95839624  .00385344  00000+0  17417-2 0  9998
2 67912  42.9987 248.0765 0001837 288.2205  71.8467 15.82146067  3718
STARLINK-36690          
1 67913U 26036K   26068.95764797  .00360502  00000+0  16353-2 0  9994
2 67913  42.9988 248.0706 0001906 284.5891  75.4769 15.82133200  3712
STARLINK-36724          
1 67914U 26036L   26068.95614926  .00354373  00000+0  16090-2 0  9990
2 67914  42.9993 248.0577 0001750 273.9452  86.1220 15.82129688  3713
STARLINK-36723          
1 67915U 26036M   26068.95689966  .00408553  00000+0  18416-2 0  9991
2 67915  42.9988 248.0644 0001838 294.6637  65.4043 15.82144787  3715
STARLINK-36721          
1 67916U 26036N   26068.95539840  .00366391  00000+0  16598-2 0  9999
2 67916  42.9991 248.0530 0002047 267.6120  92.4517 15.82146319  3713
STARLINK-36722          
1 67917U 26036P   26068.95464826  .00325933  00000+0  14852-2 0  9999
2 67917  42.9990 248.0449 0002307 293.9668  66.0962 15.82125210  3718
STARLINK-36341          
1 67918U 26036Q   26068.89018697  .00777423  00000+0  33126-2 0  9994
2 67918  42.9987 248.4207 0002259 306.3888  53.6775 15.82409136  3705
STARLINK-36663          
1 67919U 26036R   26069.00003472  .00053609  00000+0  25569-3 0  9990
2 67919  42.9996 247.7589 0001611 278.6302 344.4990 15.82003857  3692
STARLINK-36375          
1 67920U 26036S   26068.88927211  .00669229  00000+0  29122-2 0  9992
2 67920  42.9987 248.4138 0002326 272.6969  87.3637 15.82233410  3702
STARLINK-36405          
1 67921U 26036T   26068.63674890 -.00677443  00000+0 -39268-2 0  9999
2 67921  42.9988 249.9614 0002951 222.6279 137.4363 15.79365654  3662
STARLINK-36383          
1 67922U 26036U   26068.88777368  .00373062  00000+0  16902-2 0  9999
2 67922  42.9990 248.4021 0001777 287.4920  72.5758 15.82126529  3701
