[{"OBJECT_NAME":"STARLINK-36742","OBJECT_ID":"2026-036D","EPOCH":"2026-03-09T21:34:34.583232","MEAN_MOTION":15.82098755,"ECCENTRICITY":0.0002122,"INCLINATION":42.9993,"RA_OF_ASC_NODE":248.4956,"ARG_OF_PERICENTER":279.111,"MEAN_ANOMALY":80.9522,"EPHEMERIS_TYPE":0,"CLASSIFICATION_TYPE":"U","NORAD_CAT_ID":67907,"ELEMENT_SET_NO":999,"REV_AT_EPOCH":370,"BSTAR":0.001231,"MEAN_MOTION_DOT":0.00267893,"MEAN_MOTION_DDOT":0},{"OBJECT_NAME":"STARLINK-36827","OBJECT_ID":"2026-036E","EPOCH":"2026-03-09T23:04:24.660192","MEAN_MOTION":15.82117013,"ECCENTRICITY":0.00021081,"INCLINATION":42.9986,"RA_OF_ASC_NODE":248.1012,"ARG_OF_PERICENTER":299.4497,"MEAN_ANOMALY":60.6164,"EPHEMERIS_TYPE":0,"CLASSIFICATION_TYPE":"U","NORAD_CAT_ID":67908,"ELEMENT_SET_NO":999,"REV_AT_EPOCH":371,"BSTAR":0.0015202277,"MEAN_MOTION_DOT":0.003338,"MEAN_MOTION_DDOT":0},{"OBJECT_NAME":"STARLINK-36822","OBJECT_ID":"2026-036F","EPOCH":"2026-03-09T23:03:19.833408","MEAN_MOTION":15.82145601,"ECCENTRICITY":0.00017702,"INCLINATION":42.9986,"RA_OF_ASC_NODE":248.0951,"ARG_OF_PERICENTER":299.6042,"MEAN_ANOMALY":60.4653,"EPHEMERIS_TYPE":0,"CLASSIFICATION_TYPE":"U","NORAD_CAT_ID":67909,"ELEMENT_SET_NO":999,"REV_AT_EPOCH":371,"BSTAR":0.0018492644,"MEAN_MOTION_DOT":0.00410368,"MEAN_MOTION_DDOT":0},{"OBJECT_NAME":"STARLINK-36847","OBJECT_ID":"2026-036G","EPOCH":"2026-03-09T23:02:15.035136","MEAN_MOTION":15.82144193,"ECCENTRICITY":0.00019597,"INCLINATION":42.9987,"RA_OF_ASC_NODE":248.0891,"ARG_OF_PERICENTER":297.1888,"MEAN_ANOMALY":62.8784,"EPHEMERIS_TYPE":0,"CLASSIFICATION_TYPE":"U","NORAD_CAT_ID":67910,"ELEMENT_SET_NO":999,"REV_AT_EPOCH":371,"BSTAR":0.0017757624,"MEAN_MOTION_DOT":0.00393218,"MEAN_MOTION_DDOT":0},{"OBJECT_NAME":"STARLINK-36736","OBJECT_ID":"2026-036H","EPOCH":"2026-03-09T23:01:10.210080","MEAN_MOTION":15.82146838,"ECCENTRICITY":0.0002014,"INCLINATION":42.999,"RA_OF_ASC_NODE":248.0827,"ARG_OF_PERICENTER":267.9025,"MEAN_ANOMALY":92.1617,"EPHEMERIS_TYPE":0,"CLASSIFICATION_TYPE":"U","NORAD_CAT_ID":67911,"ELEMENT_SET_NO":999,"REV_AT_EPOCH":371,"BSTAR":0.0017549973,"MEAN_MOTION_DOT":0.00388444,"MEAN_MOTION_DDOT":0},{"OBJECT_NAME":"STARLINK-36676","OBJECT_ID":"2026-036J","EPOCH":"2026-03-09T23:00:05.435136","MEAN_MOTION":15.82146067,"ECCENTRICITY":0.00018376,"INCLINATION":42.9987,"RA_OF_ASC_NODE":248.0765,"ARG_OF_PERICENTER":288.2205,"MEAN_ANOMALY":71.8467,"EPHEMERIS_TYPE":0,"CLASSIFICATION_TYPE":"U","NORAD_CAT_ID":67912,"ELEMENT_SET_NO":999,"REV_AT_EPOCH":371,"BSTAR":0.0017417021,"MEAN_MOTION_DOT":0.00385344,"MEAN_MOTION_DDOT":0},{"OBJECT_NAME":"STARLINK-36690","OBJECT_ID":"2026-036K","EPOCH":"2026-03-09T22:59:00.784608","MEAN_MOTION":15.821332,"ECCENTRICITY":0.00019067,"INCLINATION":42.9988,"RA_OF_ASC_NODE":248.0706,"ARG_OF_PERICENTER":284.5891,"MEAN_ANOMALY":75.4769,"EPHEMERIS_TYPE":0,"CLASSIFICATION_TYPE":"U","NORAD_CAT_ID":67913,"ELEMENT_SET_NO":999,"REV_AT_EPOCH":371,"BSTAR":0.0016352993,"MEAN_MOTION_DOT":0.00360502,"MEAN_MOTION_DDOT":0},{"OBJECT_NAME":"STARLINK-36724","OBJECT_ID":"2026-036L","EPOCH":"2026-03-09T22:56:51.296064","MEAN_MOTION":15.82129688,"ECCENTRICITY":0.00017506,"INCLINATION":42.9993,"RA_OF_ASC_NODE":248.0577,"ARG_OF_PERICENTER":273.9452,"MEAN_ANOMALY":86.122,"EPHEMERIS_TYPE":0,"CLASSIFICATION_TYPE":"U","NORAD_CAT_ID":67914,"ELEMENT_SET_NO":999,"REV_AT_EPOCH":371,"BSTAR":0.001608954,"MEAN_MOTION_DOT":0.00354373,"MEAN_MOTION_DDOT":0},{"OBJECT_NAME":"STARLINK-36723","OBJECT_ID":"2026-036M","EPOCH":"2026-03-09T22:57:56.130624","MEAN_MOTION":15.82144787,"ECCENTRICITY":0.00018382,"INCLINATION":42.9988,"RA_OF_ASC_NODE":248.0644,"ARG_OF_PERICENTER":294.6637,"MEAN_ANOMALY":65.4043,"EPHEMERIS_TYPE":0,"CLASSIFICATION_TYPE":"U","NORAD_CAT_ID":67915,"ELEMENT_SET_NO":999,"REV_AT_EPOCH":371,"BSTAR":0.0018415606,"MEAN_MOTION_DOT":0.00408553,"MEAN_MOTION_DDOT":0},{"OBJECT_NAME":"STARLINK-36721","OBJECT_ID":"2026-036N","EPOCH":"2026-03-09T22:55:46.421760","MEAN_MOTION":15.82146319,"ECCENTRICITY":0.00020473,"INCLINATION":42.9991,"RA_OF_ASC_NODE":248.053,"ARG_OF_PERICENTER":267.612,"MEAN_ANOMALY":92.4517,"EPHEMERIS_TYPE":0,"CLASSIFICATION_TYPE":"U","NORAD_CAT_ID":67916,"ELEMENT_SET_NO":999,"REV_AT_EPOCH":371,"BSTAR":0.0016598112,"MEAN_MOTION_DOT":0.00366391,"MEAN_MOTION_DDOT":0},{"OBJECT_NAME":"STARLINK-36722","OBJECT_ID":"2026-036P","EPOCH":"2026-03-09T22:54:41.609664","MEAN_MOTION":15.8212521,"ECCENTRICITY":0.00023073,"INCLINATION":42.999,"RA_OF_ASC_NODE":248.0449,"ARG_OF_PERICENTER":293.9668,"MEAN_ANOMALY":66.0962,"EPHEMERIS_TYPE":0,"CLASSIFICATION_TYPE":"U","NORAD_CAT_ID":67917,"ELEMENT_SET_NO":999,"REV_AT_EPOCH":371,"BSTAR":0.0014852408,"MEAN_MOTION_DOT":0.00325933,"MEAN_MOTION_DDOT":0},{"OBJECT_NAME":"STARLINK-36341","OBJECT_ID":"2026-036Q","EPOCH":"2026-03-09T21:21:52.154208","MEAN_MOTION":15.82409136,"ECCENTRICITY":0.0002259,"INCLINATION":42.9987,"RA_OF_ASC_NODE":248.4207,"ARG_OF_PERICENTER":306.3888,"MEAN_ANOMALY":53.6775,"EPHEMERIS_TYPE":0,"CLASSIFICATION_TYPE":"U","NORAD_CAT_ID":67918,"ELEMENT_SET_NO":999,"REV_AT_EPOCH":370,"BSTAR":0.0033126,"MEAN_MOTION_DOT":0.00777423,"MEAN_MOTION_DDOT":0},{"OBJECT_NAME":"STARLINK-36663","OBJECT_ID":"2026-036R","EPOCH":"2026-03-10T00:00:02.999808","MEAN_MOTION":15.82003857,"ECCENTRICITY":0.00016114,"INCLINATION":42.9996,"RA_OF_ASC_NODE":247.7589,"ARG_OF_PERICENTER":278.6302,"MEAN_ANOMALY":344.499,"EPHEMERIS_TYPE":0,"CLASSIFICATION_TYPE":"U","NORAD_CAT_ID":67919,"ELEMENT_SET_NO":999,"REV_AT_EPOCH":369,"BSTAR":0.00025568749,"MEAN_MOTION_DOT":0.00053609,"MEAN_MOTION_DDOT":0},{"OBJECT_NAME":"STARLINK-36375","OBJECT_ID":"2026-036S","EPOCH":"2026-03-09T21:20:33.110304","MEAN_MOTION":15.8223341,"ECCENTRICITY":0.0002326,"INCLINATION":42.9987,"RA_OF_ASC_NODE":248.4138,"ARG_OF_PERICENTER":272.6969,"MEAN_ANOMALY":87.3637,"EPHEMERIS_TYPE":0,"CLASSIFICATION_TYPE":"U","NORAD_CAT_ID":67920,"ELEMENT_SET_NO":999,"REV_AT_EPOCH":370,"BSTAR":0.0029122,"MEAN_MOTION_DOT":0.00669229,"MEAN_MOTION_DDOT":0},{"OBJECT_NAME":"STARLINK-36405","OBJECT_ID":"2026-036T","EPOCH":"2026-03-09T15:16:55.104960","MEAN_MOTION":15.79365654,"ECCENTRICITY":0.0002951,"INCLINATION":42.9988,"RA_OF_ASC_NODE":249.9614,"ARG_OF_PERICENTER":222.6279,"MEAN_ANOMALY":137.4363,"EPHEMERIS_TYPE":0,"CLASSIFICATION_TYPE":"U","NORAD_CAT_ID":67921,"ELEMENT_SET_NO":999,"REV_AT_EPOCH":366,"BSTAR":-0.0039267686,"MEAN_MOTION_DOT":-0.00677443,"MEAN_MOTION_DDOT":0},{"OBJECT_NAME":"STARLINK-36383","OBJECT_ID":"2026-036U","EPOCH":"2026-03-09T21:18:23.645952","MEAN_MOTION":15.82126529,"ECCENTRICITY":0.0001777,"INCLINATION":42.999,"RA_OF_ASC_NODE":248.4021,"ARG_OF_PERICENTER":287.492,"MEAN_ANOMALY":72.5758,"EPHEMERIS_TYPE":0,"CLASSIFICATION_TYPE":"U","NORAD_CAT_ID":67922,"ELEMENT_SET_NO":999,"REV_AT_EPOCH":370,"BSTAR":0.0016902,"MEAN_MOTION_DOT":0.00373062,"MEAN_MOTION_DDOT":0}]
